[{"OBJECT_NAME":"GAOFEN-9 04","OBJECT_ID":"2020-054A","EPOCH":"2026-03-09T22:30:58.350240","MEAN_MOTION":15.3498743,"ECCENTRICITY":0.00126493,"INCLINATION":97.2525,"RA_OF_ASC_NODE":139.4278,"ARG_OF_PERICENTER":89.779,"MEAN_ANOMALY":270.4903,"EPHEMERIS_TYPE":0,"CLASSIFICATION_TYPE":"U","NORAD_CAT_ID":46025,"ELEMENT_SET_NO":999,"REV_AT_EPOCH":31112,"BSTAR":0.00016488112,"MEAN_MOTION_DOT":5.53e-5,"MEAN_MOTION_DDOT":0},{"OBJECT_NAME":"STARLINK-34327","OBJECT_ID":"2025-117F","EPOCH":"2026-03-09T21:54:35.635680","MEAN_MOTION":15.30200808,"ECCENTRICITY":0.00014386,"INCLINATION":53.1603,"RA_OF_ASC_NODE":38.3031,"ARG_OF_PERICENTER":71.5677,"MEAN_ANOMALY":288.548,"EPHEMERIS_TYPE":0,"CLASSIFICATION_TYPE":"U","NORAD_CAT_ID":64208,"ELEMENT_SET_NO":999,"REV_AT_EPOCH":4352,"BSTAR":0.0011024588,"MEAN_MOTION_DOT":0.00032436,"MEAN_MOTION_DDOT":0}]
